{
  "type": "FeatureCollection",
  "features": [
    {
      "type": "Feature",
      "geometry": {
        "type": "LineString",
        "coordinates": [
          [104.048348, 30.648641, 1],
          [104.048394, 30.648488, 1],
          [104.047922, 30.648302, 1],
          [104.047869, 30.648292, 1],
          [104.047834, 30.648278, 1],
          [104.047766, 30.648259, 1],
          [104.047656, 30.648216, 1],
          [104.047391, 30.648073, 1],
          [104.04731, 30.648034, 1],
          [104.047192, 30.647986, 1],
          [104.046837, 30.647842, 1],
          [104.046805, 30.647849, 1],
          [104.046638, 30.647888, 1],
          [104.046595, 30.647872, 1],
          [104.046178, 30.647717, 1],
          [104.045969, 30.647634, 1],
          [104.045824, 30.647576, 1],
          [104.045201, 30.647277, 1],
          [104.045172, 30.647384, 1],
          [104.045143, 30.647408, 1],
          [104.045111, 30.647451, 1],
          [104.045057, 30.647548, 1],
          [104.045012, 30.647606, 1],
          [104.044993, 30.647621, 1],
          [104.044851, 30.647736, 1],
          [104.044822, 30.64776, 1],
          [104.044722, 30.647909, 1],
          [104.044731, 30.647932, 1],
          [104.044759, 30.647957, 1],
          [104.04485, 30.647985, 1],
          [104.044759, 30.647957, 1],
          [104.044731, 30.647932, 1],
          [104.044722, 30.647909, 1],
          [104.044822, 30.64776, 1],
          [104.044851, 30.647736, 1],
          [104.044993, 30.647621, 1],
          [104.045012, 30.647606, 1],
          [104.045057, 30.647548, 1],
          [104.045111, 30.647451, 1],
          [104.045143, 30.647408, 1],
          [104.045172, 30.647384, 1],
          [104.045201, 30.647277, 1],
          [104.045824, 30.647576, 1],
          [104.045969, 30.647634, 1],
          [104.046178, 30.647717, 1],
          [104.046595, 30.647872, 1],
          [104.046638, 30.647888, 1],
          [104.046805, 30.647849, 1],
          [104.046837, 30.647842, 1],
          [104.047192, 30.647986, 1],
          [104.04731, 30.648034, 1],
          [104.047391, 30.648073, 1],
          [104.047656, 30.648216, 1],
          [104.047766, 30.648259, 1],
          [104.047834, 30.648278, 1],
          [104.047869, 30.648292, 1],
          [104.047922, 30.648302, 1],
          [104.047896, 30.648547, 1],
          [104.047891, 30.648629, 1],
          [104.047889, 30.648696, 1],
          [104.047884, 30.648855, 1],
          [104.047881, 30.648941, 1],
          [104.047879, 30.649035, 1],
          [104.047873, 30.649242, 1],
          [104.047868, 30.6494, 1],
          [104.047849, 30.650001, 1],
          [104.047841, 30.65031, 1],
          [104.047836, 30.650358, 1],
          [104.047829, 30.6506, 1],
          [104.047766, 30.650754, 1],
          [104.047763, 30.65096, 1],
          [104.047756, 30.651312, 1],
          [104.047751, 30.65158, 1],
          [104.047748, 30.651714, 1],
          [104.047747, 30.651758, 1],
          [104.047743, 30.65182, 1],
          [104.047736, 30.65199, 1],
          [104.047733, 30.652123, 1],
          [104.04773, 30.652193, 1],
          [104.047728, 30.652239, 1],
          [104.047722, 30.652374, 1],
          [104.047721, 30.652418, 1],
          [104.04772, 30.652438, 1],
          [104.047713, 30.652625, 1],
          [104.047777, 30.6527, 1],
          [104.047765, 30.653121, 1],
          [104.047713, 30.654475, 1],
          [104.047701, 30.654883, 1],
          [104.047693, 30.655103, 1],
          [104.047686, 30.655323, 1],
          [104.047678, 30.65556, 1],
          [104.04761, 30.655627, 1],
          [104.047606, 30.655803, 1],
          [104.047596, 30.656113, 1],
          [104.04759, 30.656314, 1],
          [104.047577, 30.656762, 1],
          [104.047573, 30.656866, 1],
          [104.047564, 30.657182, 1],
          [104.047556, 30.657457, 1],
          [104.047549, 30.657687, 1],
          [104.047545, 30.657848, 1],
          [104.047546, 30.657867, 1],
          [104.047543, 30.657966, 1],
          [104.04754, 30.658056, 1],
          [104.047533, 30.658263, 1],
          [104.047532, 30.658299, 1],
          [104.047527, 30.658495, 1],
          [104.047514, 30.65889, 1],
          [104.047509, 30.659052, 1],
          [104.047501, 30.659325, 1],
          [104.047493, 30.659617, 1],
          [104.047485, 30.659895, 1],
          [104.047478, 30.660173, 1],
          [104.047475, 30.66026, 1],
          [104.047471, 30.660451, 1],
          [104.047454, 30.661021, 1],
          [104.047446, 30.661261, 1],
          [104.047439, 30.66149, 1],
          [104.047432, 30.661703, 1],
          [104.047428, 30.661837, 1],
          [104.047416, 30.662193, 1],
          [104.047413, 30.662256, 1],
          [104.047403, 30.662633, 1],
          [104.047397, 30.662809, 1],
          [104.047394, 30.662895, 1],
          [104.047392, 30.662962, 1],
          [104.047391, 30.662998, 1],
          [104.04739, 30.663018, 1],
          [104.047646, 30.663027, 1],
          [104.04765, 30.663052, 1],
          [104.04774, 30.663075, 1],
          [104.047951, 30.663134, 1],
          [104.048166, 30.663214, 1],
          [104.048674, 30.663462, 1],
          [104.049143, 30.66366, 1],
          [104.049309, 30.663733, 1],
          [104.049477, 30.663784, 1],
          [104.049712, 30.663815, 1],
          [104.049949, 30.663799, 1],
          [104.050196, 30.663775, 1],
          [104.050329, 30.663712, 1],
          [104.050536, 30.663644, 1],
          [104.050659, 30.663611, 1],
          [104.050709, 30.663588, 1],
          [104.050855, 30.663531, 1],
          [104.050926, 30.663483, 1],
          [104.05099, 30.663455, 1],
          [104.051057, 30.663402, 1],
          [104.051212, 30.663312, 1],
          [104.051272, 30.66326, 1],
          [104.051334, 30.663201, 1],
          [104.05139, 30.663141, 1],
          [104.051421, 30.663096, 1],
          [104.051464, 30.663013, 1],
          [104.051533, 30.662938, 1],
          [104.051574, 30.662868, 1],
          [104.051605, 30.662794, 1],
          [104.051626, 30.662665, 1],
          [104.051638, 30.662547, 1],
          [104.051661, 30.662473, 1],
          [104.051675, 30.662404, 1],
          [104.051672, 30.662314, 1],
          [104.051701, 30.662101, 1],
          [104.051739, 30.6618, 1],
          [104.051776, 30.661624, 1],
          [104.05183, 30.661212, 1],
          [104.051854, 30.661141, 1],
          [104.051891, 30.661002, 1],
          [104.051951, 30.660694, 1],
          [104.052, 30.660465, 1],
          [104.052027, 30.660349, 1],
          [104.052036, 30.660317, 1],
          [104.05206, 30.660233, 1],
          [104.052118, 30.660061, 1],
          [104.052199, 30.65984, 1],
          [104.052266, 30.659664, 1],
          [104.052313, 30.659581, 1],
          [104.052623, 30.659008, 1],
          [104.052883, 30.658544, 1],
          [104.052916, 30.658461, 1],
          [104.053006, 30.65825, 1],
          [104.053084, 30.658065, 1],
          [104.053082, 30.657997, 1],
          [104.052983, 30.658005, 1],
          [104.052927, 30.657989, 1],
          [104.052818, 30.657824, 1],
          [104.052756, 30.657742, 1],
          [104.052721, 30.657695, 1],
          [104.052714, 30.657548, 1],
          [104.052719, 30.657419, 1],
          [104.052742, 30.657311, 1],
          [104.052836, 30.657187, 1],
          [104.052862, 30.657166, 1],
          [104.052873, 30.657162, 1],
          [104.052908, 30.657148, 1],
          [104.053525, 30.656838, 1],
          [104.05369, 30.65703, 1],
          [104.053806, 30.657172, 1],
          [104.053923, 30.6573, 1],
          [104.054164, 30.657235, 1],
          [104.05578, 30.657221, 1],
          [104.056347, 30.657276, 1],
          [104.056429, 30.657301, 1],
          [104.058276, 30.657847, 1],
          [104.05873, 30.657981, 1],
          [104.059102, 30.658014, 1],
          [104.059468, 30.657997, 1],
          [104.059754, 30.657921, 1],
          [104.059842, 30.657901, 1],
          [104.059912, 30.657871, 1],
          [104.059971, 30.657845, 1],
          [104.060455, 30.657558, 1],
          [104.060476, 30.657534, 1],
          [104.060711, 30.657269, 1],
          [104.061107, 30.656821, 1],
          [104.061226, 30.656623, 1],
          [104.061456, 30.656223, 1],
          [104.061645, 30.655894, 1],
          [104.061963, 30.655343, 1],
          [104.062287, 30.654999, 1],
          [104.062566, 30.654789, 1],
          [104.062714, 30.654692, 1],
          [104.063039, 30.654474, 1],
          [104.06289, 30.654414, 1],
          [104.06284, 30.654365, 1],
          [104.062651, 30.654172, 1],
          [104.062581, 30.6541, 1],
          [104.06219, 30.653688, 1],
          [104.061943, 30.653482, 1],
          [104.061821, 30.653413, 1],
          [104.061466, 30.653235, 1],
          [104.061368, 30.653187, 1],
          [104.06091, 30.653013, 1],
          [104.060572, 30.652853, 1],
          [104.060317, 30.652686, 1],
          [104.060185, 30.652559, 1],
          [104.060111, 30.652526, 1],
          [104.060028, 30.65249, 1],
          [104.059842, 30.652412, 1],
          [104.059474, 30.65223, 1],
          [104.05945, 30.652218, 1],
          [104.059284, 30.652145, 1],
          [104.059263, 30.652136, 1],
          [104.059118, 30.652067, 1],
          [104.058724, 30.651939, 1],
          [104.05853, 30.651859, 1],
          [104.058422, 30.651825, 1],
          [104.058322, 30.651782, 1],
          [104.058206, 30.651733, 1],
          [104.058148, 30.651708, 1],
          [104.058058, 30.651659, 1],
          [104.057996, 30.651633, 1],
          [104.057896, 30.65155, 1],
          [104.057818, 30.651469, 1],
          [104.057715, 30.651393, 1],
          [104.057633, 30.651357, 1],
          [104.057497, 30.651312, 1],
          [104.057305, 30.651229, 1],
          [104.056952, 30.651109, 1],
          [104.056764, 30.651071, 1],
          [104.056661, 30.651034, 1],
          [104.056471, 30.650954, 1],
          [104.056434, 30.650938, 1],
          [104.056324, 30.650882, 1],
          [104.056191, 30.650814, 1],
          [104.056105, 30.650778, 1],
          [104.055956, 30.65071, 1],
          [104.055823, 30.650688, 1],
          [104.055768, 30.65068, 1],
          [104.055656, 30.650671, 1],
          [104.055528, 30.65066, 1],
          [104.055463, 30.650653, 1],
          [104.055292, 30.650638, 1],
          [104.055129, 30.650623, 1],
          [104.05457, 30.650567, 1],
          [104.054433, 30.650553, 1],
          [104.054214, 30.650535, 1],
          [104.054039, 30.650517, 1],
          [104.053915, 30.650498, 1],
          [104.053796, 30.650488, 1],
          [104.053635, 30.650477, 1],
          [104.053345, 30.650441, 1],
          [104.053254, 30.650429, 1],
          [104.053046, 30.65039, 1],
          [104.052938, 30.650369, 1],
          [104.052851, 30.650354, 1],
          [104.052778, 30.650331, 1],
          [104.052679, 30.650307, 1],
          [104.052547, 30.650269, 1],
          [104.052457, 30.650241, 1],
          [104.052363, 30.650216, 1],
          [104.051996, 30.650069, 1],
          [104.051679, 30.649938, 1],
          [104.051622, 30.649917, 1],
          [104.051574, 30.649898, 1],
          [104.051516, 30.649875, 1],
          [104.051442, 30.649848, 1],
          [104.051385, 30.649821, 1],
          [104.051269, 30.649767, 1],
          [104.051149, 30.649716, 1],
          [104.051063, 30.64968, 1],
          [104.051008, 30.649653, 1],
          [104.050939, 30.649622, 1],
          [104.05088, 30.649601, 1],
          [104.050692, 30.649534, 1],
          [104.050074, 30.649234, 1],
          [104.04978, 30.649107, 1],
          [104.049568, 30.649018, 1],
          [104.049354, 30.648908, 1],
          [104.049217, 30.648839, 1],
          [104.04913, 30.648797, 1],
          [104.048692, 30.648609, 1],
          [104.048613, 30.648751, 1],
          [104.048553, 30.648726, 1],
          [104.048424, 30.648672, 1]
        ]
      },
      "properties": {
        "name": "demo route"
      }
    }
  ]
} 