{
  "type": "FeatureCollection",
  "features": [
    {
      "type": "Feature",
      "geometry": {
        "type": "LineString",
        "coordinates": [
          [117.042104, 36.178263, 1],
          [117.042236, 36.178265, 1],
          [117.042297, 36.178302, 1],
          [117.042486, 36.178389, 1],
          [117.042746, 36.178507, 1],
          [117.042939, 36.178211, 1],
          [117.042976, 36.178233, 1],
          [117.043074, 36.178290, 1],
          [117.043329, 36.178440, 1],
          [117.043449, 36.178496, 1],
          [117.043647, 36.178568, 1],
          [117.043769, 36.178628, 1],
          [117.043840, 36.178673, 1],
          [117.043887, 36.178682, 1],
          [117.043945, 36.178685, 1],
          [117.044032, 36.178681, 1],
          [117.044048, 36.178686, 1],
          [117.044108, 36.178706, 1],
          [117.044159, 36.178716, 1],
          [117.044187, 36.178722, 1],
          [117.044236, 36.178738, 1],
          [117.044295, 36.178784, 1],
          [117.044319, 36.178804, 1],
          [117.044380, 36.178863, 1],
          [117.044488, 36.178914, 1],
          [117.044521, 36.178928, 1],
          [117.044729, 36.179027, 1],
          [117.044847, 36.179081, 1],
          [117.044778, 36.179199, 1],
          [117.044935, 36.179287, 1],
          [117.045024, 36.179349, 1],
          [117.045121, 36.179397, 1],
          [117.045108, 36.179423, 1],
          [117.046584, 36.180040, 1],
          [117.046965, 36.180188, 1],
          [117.048334, 36.180798, 1],
          [117.048608, 36.180905, 1],
          [117.048871, 36.180895, 1],
          [117.048951, 36.181045, 1],
          [117.049068, 36.181090, 1],
          [117.049286, 36.181063, 1],
          [117.049304, 36.181111, 1],
          [117.049347, 36.181198, 1],
          [117.049927, 36.181442, 1],
          [117.050431, 36.181664, 1],
          [117.051204, 36.181982, 1],
          [117.051916, 36.182256, 1],
          [117.052071, 36.182297, 1],
          [117.052708, 36.182474, 1],
          [117.053263, 36.182603, 1],
          [117.053432, 36.182619, 1],
          [117.053761, 36.182647, 1],
          [117.053929, 36.182571, 1],
          [117.054479, 36.182595, 1],
          [117.055485, 36.182670, 1],
          [117.056296, 36.182720, 1],
          [117.056596, 36.182742, 1],
          [117.057704, 36.182820, 1],
          [117.058264, 36.182878, 1],
          [117.058560, 36.182914, 1],
          [117.059051, 36.183026, 1],
          [117.059755, 36.183201, 1],
          [117.061004, 36.183520, 1],
          [117.061608, 36.183657, 1],
          [117.062246, 36.183756, 1],
          [117.062475, 36.183785, 1],
          [117.062811, 36.183810, 1],
          [117.063223, 36.183816, 1],
          [117.063865, 36.183775, 1],
          [117.064067, 36.183752, 1],
          [117.064180, 36.183754, 1],
          [117.064361, 36.183702, 1],
          [117.064581, 36.183650, 1],
          [117.066540, 36.183251, 1],
          [117.066887, 36.183311, 1],
          [117.066995, 36.183286, 1],
          [117.067069, 36.183270, 1],
          [117.067278, 36.183224, 1],
          [117.067476, 36.183180, 1],
          [117.069110, 36.182820, 1],
          [117.069221, 36.182796, 1],
          [117.070541, 36.182507, 1],
          [117.071100, 36.182387, 1],
          [117.071198, 36.182487, 1],
          [117.071307, 36.182520, 1],
          [117.072175, 36.182356, 1],
          [117.072635, 36.182271, 1],
          [117.073098, 36.182167, 1],
          [117.073292, 36.182126, 1],
          [117.073643, 36.182036, 1],
          [117.073822, 36.181931, 1],
          [117.074255, 36.181874, 1],
          [117.074366, 36.181857, 1],
          [117.074970, 36.181751, 1],
          [117.075157, 36.181735, 1],
          [117.075271, 36.181850, 1],
          [117.075987, 36.181793, 1],
          [117.076457, 36.181764, 1],
          [117.076987, 36.181769, 1],
          [117.077297, 36.181767, 1],
          [117.078300, 36.181817, 1],
          [117.078577, 36.181838, 1],
          [117.079548, 36.181929, 1],
          [117.079713, 36.181814, 1],
          [117.081199, 36.181972, 1],
          [117.081332, 36.181987, 1],
          [117.081580, 36.182015, 1],
          [117.082139, 36.182078, 1],
          [117.083075, 36.182180, 1],
          [117.083257, 36.182201, 1],
          [117.083456, 36.182223, 1],
          [117.084106, 36.182289, 1],
          [117.085102, 36.182389, 1],
          [117.085990, 36.182485, 1],
          [117.086195, 36.182505, 1],
          [117.087083, 36.182578, 1],
          [117.087513, 36.182614, 1],
          [117.087778, 36.182646, 1],
          [117.087907, 36.182659, 1],
          [117.089508, 36.182873, 1],
          [117.090491, 36.183006, 1],
          [117.091283, 36.183120, 1],
          [117.091566, 36.183150, 1],
          [117.091992, 36.183198, 1],
          [117.092071, 36.183208, 1],
          [117.092411, 36.183235, 1],
          [117.093624, 36.183387, 1],
          [117.093688, 36.183394, 1],
          [117.094016, 36.183435, 1],
          [117.095174, 36.183578, 1],
          [117.095445, 36.183611, 1],
          [117.095554, 36.183623, 1],
          [117.096788, 36.183738, 1],
          [117.097914, 36.183867, 1],
          [117.099166, 36.184048, 1],
          [117.100336, 36.184186, 1],
          [117.101066, 36.184266, 1],
          [117.101489, 36.184311, 1],
          [117.102468, 36.184436, 1],
          [117.103025, 36.184501, 1],
          [117.103145, 36.184515, 1],
          [117.103379, 36.184543, 1],
          [117.103537, 36.184559, 1],
          [117.104056, 36.184612, 1],
          [117.104464, 36.184661, 1],
          [117.104699, 36.184688, 1],
          [117.105355, 36.184765, 1],
          [117.106149, 36.184846, 1],
          [117.106380, 36.184873, 1],
          [117.106446, 36.184883, 1],
          [117.106838, 36.184932, 1],
          [117.107009, 36.184955, 1],
          [117.108220, 36.185112, 1],
          [117.108175, 36.185567, 1],
          [117.108196, 36.185670, 1],
          [117.108399, 36.185759, 1],
          [117.109019, 36.186030, 1],
          [117.110169, 36.186462, 1],
          [117.110627, 36.186634, 1],
          [117.110828, 36.186703, 1],
          [117.111225, 36.186853, 1],
          [117.111469, 36.186944, 1],
          [117.111623, 36.186997, 1],
          [117.111804, 36.187064, 1],
          [117.111939, 36.187114, 1],
          [117.112564, 36.187345, 1],
          [117.112704, 36.187394, 1],
          [117.113380, 36.187632, 1],
          [117.114445, 36.187736, 1],
          [117.114417, 36.187998, 1],
          [117.114713, 36.188126, 1],
          [117.114880, 36.188199, 1],
          [117.115074, 36.188269, 1],
          [117.115253, 36.188342, 1],
          [117.115368, 36.188381, 1],
          [117.115537, 36.188450, 1],
          [117.115769, 36.188544, 1],
          [117.115998, 36.188619, 1],
          [117.116540, 36.188845, 1],
          [117.116673, 36.189110, 1],
          [117.116634, 36.189187, 1],
          [117.116611, 36.189263, 1],
          [117.116607, 36.189332, 1],
          [117.116626, 36.189429, 1],
          [117.116357, 36.189632, 1],
          [117.116269, 36.189699, 1],
          [117.116328, 36.189819, 1],
          [117.116584, 36.189688, 1],
          [117.116688, 36.189709, 1],
          [117.117038, 36.189795, 1],
          [117.117121, 36.189951, 1],
          [117.117166, 36.190059, 1],
          [117.117180, 36.190093, 1],
          [117.117214, 36.190170, 1],
          [117.117239, 36.190227, 1],
          [117.117259, 36.190270, 1],
          [117.117277, 36.190310, 1],
          [117.117306, 36.190376, 1],
          [117.117344, 36.190464, 1],
          [117.117369, 36.190519, 1],
          [117.117400, 36.190589, 1],
          [117.117408, 36.190607, 1],
          [117.117434, 36.190666, 1],
          [117.117474, 36.190755, 1],
          [117.117496, 36.190806, 1],
          [117.117574, 36.190980, 1],
          [117.117550, 36.191016, 1],
          [117.117567, 36.191079, 1],
          [117.117706, 36.191351, 1],
          [117.117853, 36.191630, 1],
          [117.118460, 36.192590, 1],
          [117.118563, 36.192795, 1],
          [117.118671, 36.192955, 1],
          [117.118892, 36.193281, 1],
          [117.118936, 36.193345, 1],
          [117.119061, 36.193530, 1],
          [117.119121, 36.193578, 1],
          [117.119221, 36.193613, 1],
          [117.119234, 36.193641, 1],
          [117.119255, 36.193715, 1],
          [117.119264, 36.193795, 1],
          [117.119276, 36.193980, 1],
          [117.119278, 36.194063, 1],
          [117.119275, 36.194350, 1],
          [117.119276, 36.194411, 1],
          [117.119278, 36.194543, 1],
          [117.119279, 36.194652, 1],
          [117.119280, 36.194710, 1],
          [117.119281, 36.194770, 1],
          [117.119282, 36.194856, 1],
          [117.119284, 36.194940, 1],
          [117.119285, 36.195007, 1],
          [117.119286, 36.195089, 1],
          [117.119287, 36.195174, 1],
          [117.119288, 36.195257, 1],
          [117.119289, 36.195309, 1],
          [117.119291, 36.195424, 1],
          [117.119294, 36.195609, 1],
          [117.119292, 36.195726, 1],
          [117.119308, 36.196212, 1],
          [117.119320, 36.196530, 1],
          [117.119314, 36.197264, 1],
          [117.119311, 36.197647, 1],
          [117.119308, 36.197920, 1],
          [117.119308, 36.197994, 1],
          [117.119311, 36.198474, 1],
          [117.119314, 36.198667, 1],
          [117.119769, 36.198667, 1],
          [117.120039, 36.198688, 1],
          [117.120432, 36.198718, 1],
          [117.120593, 36.198730, 1],
          [117.121001, 36.198761, 1],
          [117.121585, 36.198799, 1],
          [117.122058, 36.198830, 1],
          [117.122755, 36.198878, 1],
          [117.123640, 36.198937, 1],
          [117.125701, 36.199077, 1],
          [117.125786, 36.199079, 1],
          [117.126672, 36.199129, 1],
          [117.127083, 36.199190, 1],
          [117.127398, 36.199324, 1],
          [117.127467, 36.199353, 1],
          [117.127642, 36.199489, 1],
          [117.127902, 36.199682, 1],
          [117.127961, 36.199723, 1],
          [117.128686, 36.200352, 1],
          [117.129167, 36.200769, 1],
          [117.129704, 36.201231, 1],
          [117.129797, 36.201305, 1],
          [117.130540, 36.201907, 1],
          [117.130626, 36.201984, 1],
          [117.130771, 36.202101, 1],
          [117.130987, 36.202269, 1],
          [117.131123, 36.202336, 1],
          [117.131261, 36.202409, 1],
          [117.131380, 36.202503, 1],
          [117.131711, 36.202763, 1],
          [117.131767, 36.202807, 1],
          [117.132103, 36.202888, 1],
          [117.132334, 36.203082, 1],
          [117.132396, 36.203134, 1],
          [117.132608, 36.203312, 1],
          [117.132972, 36.203619, 1],
          [117.133372, 36.203870, 1],
          [117.133631, 36.204038, 1],
          [117.133806, 36.204152, 1],
          [117.134127, 36.204359, 1],
          [117.134181, 36.204495, 1],
          [117.134189, 36.204601, 1],
          [117.134610, 36.204847, 1],
          [117.135106, 36.205084, 1],
          [117.135462, 36.205200, 1],
          [117.135687, 36.205252, 1],
          [117.135786, 36.205273, 1],
          [117.135857, 36.205283, 1],
          [117.136051, 36.205308, 1],
          [117.136358, 36.205332, 1],
          [117.137058, 36.205381, 1],
          [117.136988, 36.206293, 1],
          [117.136980, 36.206389, 1],
          [117.136918, 36.206577, 1],
          [117.136897, 36.206725, 1],
          [117.136872, 36.206897, 1],
          [117.136872, 36.206963, 1],
          [117.136871, 36.207078, 1],
          [117.136869, 36.207190, 1],
          [117.136804, 36.207867, 1],
          [117.136798, 36.207941, 1],
          [117.136745, 36.208422, 1],
          [117.136727, 36.208594, 1],
          [117.136714, 36.208689, 1],
          [117.136677, 36.208894, 1],
          [117.136632, 36.209035, 1],
          [117.136563, 36.209253, 1],
          [117.136471, 36.209474, 1],
          [117.136383, 36.209695, 1],
          [117.136267, 36.209966, 1],
          [117.136046, 36.210481, 1],
          [117.135902, 36.210815, 1],
          [117.135723, 36.211231, 1],
          [117.135488, 36.211805, 1],
          [117.135352, 36.212105, 1],
          [117.135308, 36.212203, 1],
          [117.135158, 36.212558, 1],
          [117.135107, 36.212670, 1],
          [117.135037, 36.212886, 1],
          [117.135027, 36.212925, 1],
          [117.134934, 36.213238, 1],
          [117.134986, 36.213312, 1],
          [117.135003, 36.213338, 1],
          [117.135115, 36.213423, 1],
          [117.135182, 36.213497, 1],
          [117.135247, 36.213534, 1],
          [117.135372, 36.213560, 1],
          [117.135617, 36.213565, 1],
          [117.135954, 36.213571, 1],
          [117.136279, 36.213577, 1],
          [117.136464, 36.213581, 1],
          [117.136480, 36.213625, 1],
          [117.136501, 36.213790, 1],
          [117.136494, 36.213968, 1],
          [117.136493, 36.213989, 1],
          [117.136461, 36.214097, 1],
          [117.136417, 36.214213, 1],
          [117.136396, 36.214316, 1],
          [117.136358, 36.214500, 1],
          [117.136351, 36.214563, 1],
          [117.136344, 36.214629, 1],
          [117.136331, 36.214757, 1],
          [117.136315, 36.214907, 1],
          [117.136295, 36.215093, 1],
          [117.136219, 36.215271, 1],
          [117.135722, 36.215619, 1],
          [117.135830, 36.215733, 1],
          [117.135890, 36.215760, 1],
          [117.135977, 36.215800, 1],
          [117.136141, 36.215835, 1],
          [117.136276, 36.215855, 1],
          [117.137050, 36.216083, 1],
          [117.137210, 36.216131, 1],
          [117.137601, 36.216201, 1],
          [117.135977, 36.215800, 1],
          [117.135945, 36.215968, 1],
          [117.135793, 36.216620, 1],
          [117.135715, 36.216923, 1],
          [117.135658, 36.217048, 1],
          [117.135573, 36.217163, 1],
          [117.135487, 36.217270, 1],
          [117.135405, 36.217356, 1],
          [117.134951, 36.217681, 1],
          [117.134928, 36.217738, 1],
          [117.135019, 36.217859, 1],
          [117.135293, 36.217969, 1],
          [117.135485, 36.218073, 1],
          [117.135549, 36.218148, 1],
          [117.135582, 36.218262, 1],
          [117.135597, 36.218386, 1],
          [117.135638, 36.218760, 1],
          [117.135617, 36.218830, 1],
          [117.135441, 36.219136, 1],
          [117.134966, 36.219648, 1],
          [117.134102, 36.220330, 1],
          [117.133830, 36.220741, 1],
          [117.133569, 36.221045, 1],
          [117.133534, 36.221071, 1],
          [117.133221, 36.221326, 1],
          [117.132975, 36.221612, 1],
          [117.132885, 36.221679, 1],
          [117.132827, 36.221722, 1],
          [117.132705, 36.221811, 1],
          [117.132266, 36.222271, 1],
          [117.132192, 36.222383, 1],
          [117.132119, 36.222525, 1],
          [117.132032, 36.222717, 1],
          [117.131984, 36.222804, 1],
          [117.131866, 36.223002, 1],
          [117.131856, 36.223019, 1],
          [117.131728, 36.223205, 1],
          [117.131609, 36.223414, 1],
          [117.131401, 36.223886, 1],
          [117.131377, 36.223955, 1],
          [117.131331, 36.224202, 1],
          [117.131267, 36.224327, 1],
          [117.131204, 36.224405, 1],
          [117.131070, 36.224482, 1],
          [117.130913, 36.224579, 1],
          [117.130834, 36.224602, 1],
          [117.130779, 36.224640, 1],
          [117.130706, 36.224778, 1],
          [117.130536, 36.224929, 1],
          [117.130380, 36.225100, 1],
          [117.130290, 36.225215, 1],
          [117.130264, 36.225319, 1],
          [117.130256, 36.225506, 1],
          [117.130238, 36.225551, 1],
          [117.130218, 36.225593, 1],
          [117.130202, 36.225606, 1],
          [117.130174, 36.225607, 1],
          [117.130019, 36.225573, 1],
          [117.129940, 36.225745, 1],
          [117.129857, 36.225847, 1],
          [117.129808, 36.225980, 1],
          [117.129755, 36.226053, 1],
          [117.129746, 36.226170, 1],
          [117.129726, 36.226233, 1],
          [117.129639, 36.226350, 1],
          [117.129574, 36.226415, 1],
          [117.129447, 36.226537, 1],
          [117.129401, 36.226628, 1],
          [117.129370, 36.226703, 1],
          [117.129236, 36.226743, 1],
          [117.129216, 36.226772, 1],
          [117.129173, 36.226900, 1],
          [117.129166, 36.227061, 1],
          [117.129207, 36.227219, 1],
          [117.129247, 36.227334, 1],
          [117.129241, 36.227475, 1],
          [117.129113, 36.227758, 1],
          [117.129037, 36.227906, 1],
          [117.128981, 36.228024, 1],
          [117.128915, 36.228160, 1],
          [117.128889, 36.228152, 1],
          [117.128844, 36.228118, 1],
          [117.128785, 36.228079, 1],
          [117.128687, 36.228056, 1],
          [117.128603, 36.228035, 1],
          [117.128487, 36.228004, 1],
          [117.128454, 36.228099, 1],
          [117.128436, 36.228147, 1],
          [117.128431, 36.228166, 1],
          [117.128413, 36.228232, 1],
          [117.128429, 36.228289, 1],
          [117.128452, 36.228337, 1],
          [117.128454, 36.228354, 1],
          [117.128456, 36.228367, 1],
          [117.128435, 36.228422, 1],
          [117.128394, 36.228521, 1],
          [117.128359, 36.228597, 1],
          [117.128206, 36.228906, 1],
          [117.128191, 36.229070, 1],
          [117.128215, 36.229152, 1],
          [117.128304, 36.229299, 1],
          [117.128331, 36.229504, 1],
          [117.128276, 36.229702, 1],
          [117.128244, 36.229781, 1],
          [117.128188, 36.229878, 1],
          [117.128173, 36.230014, 1],
          [117.128163, 36.230100, 1],
          [117.128064, 36.230235, 1],
          [117.127947, 36.230433, 1],
          [117.127938, 36.231053, 1],
          [117.127876, 36.231303, 1],
          [117.127855, 36.231345, 1],
          [117.127777, 36.231508, 1],
          [117.127732, 36.231577, 1],
          [117.127635, 36.231716, 1],
          [117.127528, 36.231814, 1],
          [117.127382, 36.231904, 1],
          [117.127231, 36.232014, 1],
          [117.126988, 36.232325, 1],
          [117.126957, 36.232383, 1],
          [117.126923, 36.232452, 1],
          [117.126906, 36.232510, 1],
          [117.126908, 36.232523, 1],
          [117.126918, 36.232533, 1],
          [117.127056, 36.232574, 1],
          [117.127110, 36.232647, 1],
          [117.127118, 36.232861, 1],
          [117.127059, 36.233132, 1],
          [117.127005, 36.233249, 1],
          [117.126912, 36.233330, 1],
          [117.126821, 36.233379, 1],
          [117.126564, 36.233599, 1],
          [117.126432, 36.233773, 1],
          [117.126354, 36.233883, 1],
          [117.126321, 36.234026, 1],
          [117.126325, 36.234038, 1],
          [117.126334, 36.234046, 1],
          [117.126469, 36.234094, 1],
          [117.126489, 36.234112, 1],
          [117.126496, 36.234137, 1],
          [117.126465, 36.234359, 1],
          [117.126348, 36.234827, 1],
          [117.126221, 36.235049, 1],
          [117.125938, 36.235362, 1],
          [117.125648, 36.235606, 1],
          [117.125511, 36.235722, 1],
          [117.125225, 36.235871, 1],
          [117.125021, 36.236107, 1],
          [117.124887, 36.236344, 1],
          [117.124617, 36.236843, 1],
          [117.124553, 36.236960, 1],
          [117.124380, 36.237189, 1],
          [117.124264, 36.237281, 1],
          [117.124190, 36.237340, 1],
          [117.124046, 36.237675, 1],
          [117.123773, 36.238088, 1],
          [117.123596, 36.238382, 1],
          [117.123431, 36.238782, 1],
          [117.123323, 36.238946, 1],
          [117.123211, 36.239023, 1],
          [117.122926, 36.239331, 1],
          [117.122843, 36.239432, 1],
          [117.122683, 36.239644, 1],
          [117.122660, 36.239672, 1],
          [117.122365, 36.240037, 1],
          [117.122118, 36.240273, 1],
          [117.121986, 36.240389, 1],
          [117.121862, 36.240484, 1],
          [117.121696, 36.240575, 1],
          [117.121551, 36.240668, 1],
          [117.121485, 36.240748, 1],
          [117.121470, 36.240792, 1],
          [117.121422, 36.240948, 1],
          [117.121363, 36.241076, 1],
          [117.121350, 36.241204, 1],
          [117.121299, 36.241279, 1],
          [117.121239, 36.241344, 1],
          [117.121156, 36.241333, 1],
          [117.121118, 36.241379, 1],
          [117.121099, 36.241412, 1],
          [117.121089, 36.241429, 1],
          [117.121047, 36.241478, 1],
          [117.120988, 36.241473, 1],
          [117.120923, 36.241469, 1],
          [117.120864, 36.241488, 1],
          [117.120818, 36.241555, 1],
          [117.120677, 36.241732, 1],
          [117.120619, 36.241803, 1],
          [117.120513, 36.241920, 1],
          [117.120506, 36.241935, 1],
          [117.120506, 36.241951, 1],
          [117.120533, 36.242033, 1],
          [117.120636, 36.242117, 1],
          [117.120774, 36.242130, 1],
          [117.120965, 36.242100, 1],
          [117.121097, 36.242135, 1],
          [117.121185, 36.242169, 1],
          [117.121209, 36.242183, 1],
          [117.121213, 36.242204, 1],
          [117.121199, 36.242238, 1],
          [117.121155, 36.242259, 1],
          [117.121090, 36.242278, 1],
          [117.121055, 36.242343, 1],
          [117.121048, 36.242397, 1],
          [117.121062, 36.242504, 1],
          [117.121052, 36.242573, 1],
          [117.121026, 36.242629, 1],
          [117.121002, 36.242645, 1],
          [117.120978, 36.242657, 1],
          [117.120865, 36.242696, 1],
          [117.120853, 36.242704, 1],
          [117.120850, 36.242721, 1],
          [117.120867, 36.242967, 1],
          [117.120853, 36.243187, 1],
          [117.120821, 36.243477, 1],
          [117.120882, 36.243618, 1],
          [117.120947, 36.243744, 1],
          [117.121016, 36.244285, 1],
          [117.121086, 36.244585, 1],
          [117.121211, 36.245334, 1],
          [117.121206, 36.245349, 1],
          [117.121196, 36.245358, 1],
          [117.121122, 36.245362, 1],
          [117.121036, 36.245389, 1],
          [117.120803, 36.245354, 1],
          [117.120746, 36.245395, 1],
          [117.120734, 36.245430, 1],
          [117.120736, 36.245454, 1],
          [117.120753, 36.245548, 1],
          [117.120780, 36.245711, 1],
          [117.120753, 36.245821, 1],
          [117.120730, 36.245860, 1],
          [117.120707, 36.245904, 1],
          [117.120731, 36.245967, 1],
          [117.120767, 36.246019, 1],
          [117.121469, 36.246573, 1],
          [117.121848, 36.246813, 1],
          [117.121932, 36.246860, 1],
          [117.121986, 36.246903, 1],
          [117.122010, 36.246955, 1],
          [117.122009, 36.247001, 1],
          [117.122009, 36.247060, 1],
          [117.121979, 36.247097, 1],
          [117.121902, 36.247138, 1],
          [117.121313, 36.247314, 1],
          [117.121249, 36.247338, 1],
          [117.121274, 36.247443, 1],
          [117.121304, 36.247559, 1],
          [117.121307, 36.247712, 1],
          [117.121336, 36.247867, 1],
          [117.121397, 36.247965, 1],
          [117.121417, 36.248009, 1],
          [117.121465, 36.248111, 1],
          [117.121465, 36.248251, 1],
          [117.121433, 36.248316, 1],
          [117.121366, 36.248358, 1],
          [117.121183, 36.248389, 1],
          [117.121035, 36.248420, 1],
          [117.120803, 36.248492, 1],
          [117.120779, 36.248519, 1],
          [117.120766, 36.248551, 1],
          [117.120757, 36.248620, 1],
          [117.120846, 36.248916, 1],
          [117.120868, 36.249043, 1],
          [117.120861, 36.249106, 1],
          [117.120824, 36.249150, 1],
          [117.120790, 36.249170, 1],
          [117.120744, 36.249197, 1],
          [117.120709, 36.249264, 1],
          [117.120688, 36.249434, 1],
          [117.120660, 36.249536, 1],
          [117.120622, 36.249695, 1],
          [117.120627, 36.249855, 1],
          [117.120631, 36.249951, 1],
          [117.120617, 36.249980, 1],
          [117.120590, 36.249997, 1],
          [117.120406, 36.250046, 1],
          [117.120226, 36.250082, 1],
          [117.120046, 36.250144, 1],
          [117.119923, 36.250308, 1],
          [117.119813, 36.250552, 1],
          [117.119647, 36.250879, 1],
          [117.119652, 36.251339, 1],
          [117.119667, 36.251493, 1],
          [117.119608, 36.251688, 1],
          [117.119496, 36.251877, 1],
          [117.119364, 36.252152, 1],
          [117.119305, 36.252355, 1],
          [117.119151, 36.252406, 1],
          [117.119081, 36.252398, 1],
          [117.119047, 36.252521, 1],
          [117.119115, 36.252620, 1],
          [117.119128, 36.252697, 1],
          [117.119134, 36.252727, 1],
          [117.119203, 36.252786, 1],
          [117.119210, 36.252800, 1],
          [117.119210, 36.252816, 1],
          [117.119080, 36.253195, 1],
          [117.119112, 36.253247, 1],
          [117.119255, 36.253320, 1],
          [117.119267, 36.253333, 1],
          [117.119270, 36.253350, 1],
          [117.119260, 36.253411, 1],
          [117.119115, 36.253618, 1],
          [117.118983, 36.253726, 1],
          [117.118907, 36.253749, 1],
          [117.118753, 36.253796, 1],
          [117.118518, 36.253904, 1],
          [117.118331, 36.253974, 1],
          [117.118065, 36.253988, 1],
          [117.117765, 36.253980, 1],
          [117.117486, 36.254041, 1],
          [117.117140, 36.254384, 1],
          [117.116958, 36.254460, 1],
          [117.116721, 36.254527, 1],
          [117.116508, 36.254818, 1],
          [117.116431, 36.255047, 1],
          [117.116303, 36.255222, 1],
          [117.116286, 36.255374, 1],
          [117.116203, 36.255496, 1],
          [117.116119, 36.255574, 1],
          [117.115883, 36.255852, 1],
          [117.115573, 36.256298, 1],
          [117.115502, 36.256407, 1],
          [117.115295, 36.256574, 1],
          [117.115114, 36.256651, 1],
          [117.114991, 36.256808, 1],
          [117.114821, 36.257030, 1],
          [117.114684, 36.257179, 1],
          [117.114498, 36.257300, 1],
          [117.114076, 36.257468, 1],
          [117.113854, 36.257670, 1],
          [117.113581, 36.258246, 1],
          [117.113201, 36.258577, 1],
          [117.113043, 36.258800, 1],
          [117.112823, 36.259181, 1],
          [117.112504, 36.259727, 1],
          [117.112383, 36.259997, 1],
          [117.112496, 36.260058, 1],
          [117.112513, 36.260089, 1],
          [117.112629, 36.260297, 1],
          [117.113572, 36.260763, 1],
          [117.114227, 36.261065, 1],
          [117.114242, 36.261140, 1],
          [117.114411, 36.261212, 1],
          [117.114584, 36.261273, 1],
          [117.114846, 36.261336, 1],
          [117.114850, 36.261368, 1],
          [117.114844, 36.261410, 1],
          [117.114791, 36.261618, 1],
          [117.114749, 36.261623, 1],
          [117.114743, 36.261645, 1],
          [117.114740, 36.261684, 1],
          [117.114702, 36.262135, 1],
          [117.114690, 36.262317, 1],
          [117.114688, 36.262358, 1],
          [117.114685, 36.262413, 1],
          [117.114736, 36.262416, 1],
          [117.114832, 36.262418, 1],
          [117.114849, 36.262426, 1],
          [117.114855, 36.262442, 1],
          [117.114854, 36.262515, 1],
          [117.114861, 36.262534, 1],
          [117.114877, 36.262542, 1],
          [117.115253, 36.262550, 1],
          [117.115405, 36.262552, 1],
          [117.115456, 36.262579, 1],
          [117.115509, 36.262574, 1],
          [117.115630, 36.262564, 1],
          [117.115654, 36.262777, 1],
          [117.115656, 36.262798, 1],
          [117.115653, 36.262961, 1],
          [117.115744, 36.263007, 1],
          [117.115823, 36.263047, 1],
          [117.115926, 36.263078, 1],
          [117.115979, 36.263091, 1],
          [117.116020, 36.263109, 1],
          [117.116088, 36.263164, 1],
          [117.115963, 36.263279, 1],
          [117.115808, 36.263417, 1],
          [117.115749, 36.263420, 1],
          [117.115726, 36.263512, 1],
          [117.115674, 36.263506, 1],
          [117.115672, 36.263524, 1],
          [117.115672, 36.263543, 1],
          [117.115630, 36.263538, 1],
          [117.115621, 36.263627, 1],
          [117.115592, 36.263635, 1],
          [117.115592, 36.263631, 1],
          [117.115629, 36.263538, 1],
          [117.115621, 36.263627, 1],
          [117.115592, 36.263635, 1],
          [117.115592, 36.263631, 1],
          [117.115620, 36.263627, 1],
          [117.115592, 36.263635, 1],
          [117.115592, 36.263631, 1],
          [117.115591, 36.263635, 1],
          [117.115591, 36.263631, 1]
        ]
      },
      "properties": {
        "name": "泰安站-泰山红门登山口"
      }
    }
  ]
} 