{
  "type": "FeatureCollection",
  "features": [
    {
      "type": "Feature",
      "geometry": {
        "type": "LineString",
        "coordinates": [
          [0,0,4000000],[5,0,4000000],[10,0,4000000],[15,0,4000000],[20,0,4000000],[25,0,4000000],[30,0,4000000],[35,0,4000000],[40,0,4000000],[45,0,4000000],[50,0,4000000],[55,0,4000000],[60,0,4000000],[65,0,4000000],[70,0,4000000],[75,0,4000000],[80,0,4000000],[85,0,4000000],[90,0,4000000],[95,0,4000000],[100,0,4000000],[105,0,4000000],[110,0,4000000],[115,0,4000000],[120,0,4000000],[125,0,4000000],[130,0,4000000],[135,0,4000000],[140,0,4000000],[145,0,4000000],[150,0,4000000],[155,0,4000000],[160,0,4000000],[165,0,4000000],[170,0,4000000],[175,0,4000000],[180,0,4000000],[185,0,4000000],[190,0,4000000],[195,0,4000000],[200,0,4000000],[205,0,4000000],[210,0,4000000],[215,0,4000000],[220,0,4000000],[225,0,4000000],[230,0,4000000],[235,0,4000000],[240,0,4000000],[245,0,4000000],[250,0,4000000],[255,0,4000000],[260,0,4000000],[265,0,4000000],[270,0,4000000],[275,0,4000000],[280,0,4000000],[285,0,4000000],[290,0,4000000],[295,0,4000000],[300,0,4000000],[305,0,4000000],[310,0,4000000],[315,0,4000000],[320,0,4000000],[325,0,4000000],[330,0,4000000],[335,0,4000000],[340,0,4000000],[345,0,4000000],[350,0,4000000],[355,0,4000000],[360,0,4000000]
        ]
      },
      "properties": { "name": "Equatorial Orbit" }
    },
    {
      "type": "Feature",
      "geometry": {
        "type": "LineString",
        "coordinates": [
          [0, 90.0, 6000000],[0, 84.857143, 6000000],[0, 79.714286, 6000000],[0, 74.571429, 6000000],[0, 69.428571, 6000000],[0, 64.285714, 6000000],[0, 59.142857, 6000000],[0, 54.0, 6000000],[0, 48.857143, 6000000],[0, 43.714286, 6000000],[0, 38.571429, 6000000],[0, 33.428571, 6000000],[0, 28.285714, 6000000],[0, 23.142857, 6000000],[0, 18.0, 6000000],[0, 12.857143, 6000000],[0, 7.714286, 6000000],[0, 2.571429, 6000000],[0, -2.571429, 6000000],[0, -7.714286, 6000000],[0, -12.857143, 6000000],[0, -18.0, 6000000],[0, -23.142857, 6000000],[0, -28.285714, 6000000],[0, -33.428571, 6000000],[0, -38.571429, 6000000],[0, -43.714286, 6000000],[0, -48.857143, 6000000],[0, -54.0, 6000000],[0, -59.142857, 6000000],[0, -64.285714, 6000000],[0, -69.428571, 6000000],[0, -74.571429, 6000000],[0, -79.714286, 6000000],[0, -84.857143, 6000000],[0, -90.0, 6000000],[180, -90.0, 6000000],[180, -84.857143, 6000000],[180, -79.714286, 6000000],[180, -74.571429, 6000000],[180, -69.428571, 6000000],[180, -64.285714, 6000000],[180, -59.142857, 6000000],[180, -54.0, 6000000],[180, -48.857143, 6000000],[180, -43.714286, 6000000],[180, -38.571429, 6000000],[180, -33.428571, 6000000],[180, -28.285714, 6000000],[180, -23.142857, 6000000],[180, -18.0, 6000000],[180, -12.857143, 6000000],[180, -7.714286, 6000000],[180, -2.571429, 6000000],[180, 2.571429, 6000000],[180, 7.714286, 6000000],[180, 12.857143, 6000000],[180, 18.0, 6000000],[180, 23.142857, 6000000],[180, 28.285714, 6000000],[180, 33.428571, 6000000],[180, 38.571429, 6000000],[180, 43.714286, 6000000],[180, 48.857143, 6000000],[180, 54.0, 6000000],[180, 59.142857, 6000000],[180, 64.285714, 6000000],[180, 69.428571, 6000000],[180, 74.571429, 6000000],[180, 79.714286, 6000000],[180, 84.857143, 6000000],[180, 90.0, 6000000]
        ]
      },
      "properties": { "name": "Polar Orbit" }
    },
    {
      "type": "Feature",
      "geometry": {
        "type": "LineString",
        "coordinates": [
          [-176.459975, -3.533287, 8000000],[-172.892924, -7.053022, 8000000],[-169.271417, -10.545291, 8000000],[-165.567245, -13.995445, 8000000],[-161.751098, -17.387718, 8000000],[-157.792346, -20.704811, 8000000],[-153.658999, -23.927465, 8000000],[-149.317944, -27.034021, 8000000],[-144.73561, -30.0, 8000000],[-139.87926, -32.797751, 8000000],[-134.719114, -35.39626, 8000000],[-129.23152, -37.761244, 8000000],[-123.403199, -39.855707, 8000000],[-117.236313, -41.641143, 8000000],[-110.753571, -43.079517, 8000000],[-104.001942, -44.136029, 8000000],[-97.053227, -44.782385, 8000000],[-90.0, -45.0, 8000000],[-82.946773, -44.782385, 8000000],[-75.998058, -44.136029, 8000000],[-69.246429, -43.079517, 8000000],[-62.763687, -41.641143, 8000000],[-56.596801, -39.855707, 8000000],[-50.76848, -37.761244, 8000000],[-45.280886, -35.39626, 8000000],[-40.12074, -32.797751, 8000000],[-35.26439, -30.0, 8000000],[-30.682056, -27.034021, 8000000],[-26.341001, -23.927465, 8000000],[-22.207654, -20.704811, 8000000],[-18.248902, -17.387718, 8000000],[-14.432755, -13.995445, 8000000],[-10.728583, -10.545291, 8000000],[-7.107076, -7.053022, 8000000],[-3.540025, -3.533287, 8000000],[0.0, 0.0, 8000000],[3.540025, 3.533287, 8000000],[7.107076, 7.053022, 8000000],[10.728583, 10.545291, 8000000],[14.432755, 13.995445, 8000000],[18.248902, 17.387718, 8000000],[22.207654, 20.704811, 8000000],[26.341001, 23.927465, 8000000],[30.682056, 27.034021, 8000000],[35.26439, 30.0, 8000000],[40.12074, 32.797751, 8000000],[45.280886, 35.39626, 8000000],[50.76848, 37.761244, 8000000],[56.596801, 39.855707, 8000000],[62.763687, 41.641143, 8000000],[69.246429, 43.079517, 8000000],[75.998058, 44.136029, 8000000],[82.946773, 44.782385, 8000000],[90.0, 45.0, 8000000],[97.053227, 44.782385, 8000000],[104.001942, 44.136029, 8000000],[110.753571, 43.079517, 8000000],[117.236313, 41.641143, 8000000],[123.403199, 39.855707, 8000000],[129.23152, 37.761244, 8000000],[134.719114, 35.39626, 8000000],[139.87926, 32.797751, 8000000],[144.73561, 30.0, 8000000],[149.317944, 27.034021, 8000000],[153.658999, 23.927465, 8000000],[157.792346, 20.704811, 8000000],[161.751098, 17.387718, 8000000],[165.567245, 13.995445, 8000000],[169.271417, 10.545291, 8000000],[172.892924, 7.053022, 8000000],[176.459975, 3.533287, 8000000],[180.0, 0.0, 8000000],[183.540025, -3.533287, 8000000]
        ]
      },
      "properties": { "name": "Inclined Orbit" }
    }
  ]
} 