{
  "type": "FeatureCollection",
  "features": [
    {
      "type": "Feature",
      "geometry": {
        "type": "LineString",
        "coordinates": [
          [113.27345, 23.13538],
          [113.27414, 23.13540],
          [113.27449, 23.13629],
          [113.27461, 23.13748],
          [113.28361, 23.13733],
          [113.28893, 23.13739],
          [113.29286, 23.13705],
          [113.29790, 23.13708],
          [113.30185, 23.13714],
          [113.31875, 23.13692],
          [113.32577, 23.13354],
          [113.33049, 23.13322],
          [113.33168, 23.13309],
          [113.34499, 23.13209],
          [113.35522, 23.13133],
          [113.35561, 23.13124],
          [113.35766, 23.13076],
          [113.35820, 23.13034],
          [113.35830, 23.13437],
          [113.35877, 23.13991],
          [113.36592, 23.15015],
          [113.36949, 23.15993],
          [113.37717, 23.19955],
          [113.37570, 23.20870],
          [113.37218, 23.22097],
          [113.36995, 23.22601],
          [113.36899, 23.25991],
          [113.37443, 23.27820],
          [113.37472, 23.28754],
          [113.39263, 23.33012],
          [113.42858, 23.38279],
          [113.43365, 23.43403],
          [113.43491, 23.44941],
          [113.44477, 23.45027],
          [113.45307, 23.45040],
          [113.49678, 23.49345],
          [113.50990, 23.50311],
          [113.53481, 23.52186],
          [113.55886, 23.56271],
          [113.56331, 23.56857],
          [113.57034, 23.56485],
          [113.57162, 23.56444],
          [113.58189, 23.56122],
          [113.58326, 23.56093],
          [113.58842, 23.55853],
          [113.59237, 23.55368],
          [113.59358, 23.55379]
        ]
      },
      "properties": {
        "名称": "广州至从化路线",
        "数据来源": "基于百度地图MCP路线规划服务",
        "坐标": "根据百度开放平台官网, 猜测是BD09坐标系, 角度制"
      }
    }
  ]
} 