{
  "type": "FeatureCollection",
  "features": [
    {
      "type": "Feature",
      "geometry": {
        "type": "LineString",
        "coordinates": [
          [113.27345, 23.13538, 1],
          [113.27414, 23.13540, 1],
          [113.27449, 23.13629, 1],
          [113.27461, 23.13748, 1],
          [113.28361, 23.13733, 1],
          [113.28893, 23.13739, 1],
          [113.29286, 23.13705, 1],
          [113.29790, 23.13708, 1],
          [113.30185, 23.13714, 1],
          [113.31875, 23.13692, 1],
          [113.32577, 23.13354, 1],
          [113.33049, 23.13322, 1],
          [113.33168, 23.13309, 1],
          [113.34499, 23.13209, 1],
          [113.35522, 23.13133, 1],
          [113.35561, 23.13124, 1],
          [113.35766, 23.13076, 1],
          [113.35820, 23.13034, 1],
          [113.35830, 23.13437, 1],
          [113.35877, 23.13991, 1],
          [113.36592, 23.15015, 1],
          [113.36949, 23.15993, 1],
          [113.37717, 23.19955, 1],
          [113.37570, 23.20870, 1],
          [113.37218, 23.22097, 1],
          [113.36995, 23.22601, 1],
          [113.36899, 23.25991, 1],
          [113.37443, 23.27820, 1],
          [113.37472, 23.28754, 1],
          [113.39263, 23.33012, 1],
          [113.42858, 23.38279, 1],
          [113.43365, 23.43403, 1],
          [113.43491, 23.44941, 1],
          [113.44477, 23.45027, 1],
          [113.45307, 23.45040, 1],
          [113.49678, 23.49345, 1],
          [113.50990, 23.50311, 1],
          [113.53481, 23.52186, 1],
          [113.55886, 23.56271, 1],
          [113.56331, 23.56857, 1],
          [113.57034, 23.56485, 1],
          [113.57162, 23.56444, 1],
          [113.58189, 23.56122, 1],
          [113.58326, 23.56093, 1],
          [113.58842, 23.55853, 1],
          [113.59237, 23.55368, 1],
          [113.59358, 23.55379, 1]
        ]
      },
      "properties": {
        "名称": "广州至从化荔枝运输路线",
        "描述": "从广州市区到从化区的现代运输路线",
        "路线说明": {
          "起点": "广州市越秀区",
          "终点": "从化区",
          "主要途经": "广州北环高速 → 机场高速 → 大广高速",
          "路线特点": "全程按照实际道路规划，主要通过高速公路网络连接"
        },
        "路段描述": {
          "市区段": "从越秀区出发，经东风中路、东风东路接入华南快速",
          "高速段": "经华南快速、京港澳高速向北行驶",
          "从化段": "通过大广高速、城鳌大道最终到达从化区"
        },
        "高程说明": "所有点的高度值设为1，以避免与底图重叠",
        "数据来源": "基于百度地图路线规划服务"
      }
    }
  ]
} 