{
  "type": "FeatureCollection",
  "features": [
    {
      "type": "Feature",
      "geometry": {
        "type": "LineString",
        "coordinates": [
          [116.327824, 39.901484, 1],
          [116.328262, 39.902101, 1],
          [116.328534, 39.902087, 1],
          [116.328624, 39.902085, 1],
          [116.328664, 39.902085, 1],
          [116.328885, 39.902072, 1],
          [116.328976, 39.902080, 1],
          [116.329056, 39.902089, 1],
          [116.329107, 39.902108, 1],
          [116.329177, 39.902177, 1],
          [116.329217, 39.902287, 1],
          [116.329207, 39.902347, 1],
          [116.329187, 39.902377, 1],
          [116.329106, 39.902448, 1],
          [116.329307, 39.902655, 1],
          [116.333225, 39.902634, 1],
          [116.334319, 39.902742, 1],
          [116.345002, 39.902983, 1],
          [116.354083, 39.903448, 1],
          [116.356038, 39.903373, 1],
          [116.367426, 39.905130, 1],
          [116.374205, 39.905478, 1],
          [116.379313, 39.905732, 1],
          [116.384779, 39.906008, 1],
          [116.388708, 39.906199, 1],
          [116.390689, 39.906287, 1],
          [116.396835, 39.906536, 1],
          [116.398300, 39.906838, 1],
          [116.398273, 39.913816, 1],
          [116.397769, 39.921150, 1],
          [116.399076, 39.921189, 1],
          [116.399643, 39.923233, 1],
          [116.399291, 39.927540, 1],
          [116.400568, 39.928287, 1],
          [116.403215, 39.928379, 1],
          [116.403134, 39.929638, 1],
          [116.408933, 39.929820, 1],
          [116.412628, 39.930604, 1],
          [116.412994, 39.921594, 1],
          [116.413398, 39.907056, 1],
          [116.416566, 39.906991, 1],
          [116.418252, 39.907004, 1],
          [116.419230, 39.890928, 1],
          [116.417876, 39.888593, 1],
          [116.417061, 39.891821, 1],
          [116.419169, 39.891909, 1],
          [116.419066, 39.894619, 1],
          [116.418721, 39.899202, 1],
          [116.417366, 39.899166, 1],
          [116.412594, 39.899033, 1],
          [116.404599, 39.897711, 1],
          [116.400525, 39.896666, 1],
          [116.395698, 39.896029, 1],
          [116.391087, 39.895796, 1],
          [116.385973, 39.895540, 1],
          [116.382999, 39.895501, 1],
          [116.380833, 39.895462, 1],
          [116.377961, 39.895380, 1],
          [116.373717, 39.895282, 1],
          [116.367276, 39.895290, 1],
          [116.357152, 39.895336, 1],
          [116.347869, 39.895505, 1],
          [116.342526, 39.895612, 1],
          [116.336904, 39.895738, 1],
          [116.332900, 39.895740, 1],
          [116.327824, 39.901484, 1]
        ]
      },
      "properties": {
        "name": "demo route"
      }
    }
  ]
} 